QIANFAN-35              
1 61568U 24185S   26066.13244605  .00001033  00000+0  40997-3 0  9999
2 61568  88.9747  66.9530 0007292  27.9101 332.2483 14.28121689 82221
QIANFAN-36              
1 61569U 24185T   26066.10879460  .00000110  00000+0  14115-3 0  9998
2 61569  88.9719  72.2387 0007116 142.5966 217.5684 13.55614009 79359
QIANFAN-37              
1 62238U 24232B   26066.12909032  .00000085  00000+0  11331-3 0  9994
2 62238  89.0055  32.8059 0001753  97.5914 262.5436 13.51005520110561
QIANFAN-38              
1 62239U 24232C   26066.15372710  .00000086  00000+0  11488-3 0  9999
2 62239  89.0062  32.7249 0013286 318.5893  41.4250 13.51004059110627
QIANFAN-39              
1 62240U 24232D   26066.15479542  .00000482  00000+0  19794-3 0  9990
2 62240  89.0060  27.6528 0016769 154.1846 206.0187 14.25437701113415
QIANFAN-40              
1 62241U 24232E   26066.18664323  .00000102  00000+0  13926-3 0  9997
2 62241  89.0091  32.3298 0012589 327.6784  32.3594 13.51003356110996
QIANFAN-41              
1 62242U 24232F   26066.19491289  .00000090  00000+0  12024-3 0  9992
2 62242  89.0061  32.6709 0012592 314.4705  45.5416 13.51005002110657
QIANFAN-42              
1 62243U 24232G   26066.13627130  .00000448  00000+0  18689-3 0  9993
2 62243  89.0058  27.7147 0015384 159.5965 200.5845 14.24531435113380
QIANFAN-43              
1 62244U 24232H   26066.19075599  .00000094  00000+0  12651-3 0  9996
2 62244  89.0065  32.7403 0014269 319.3880  40.6206 13.51005032 79263
QIANFAN-44              
1 62245U 24232J   26066.10436104  .00000093  00000+0  12488-3 0  9998
2 62245  89.0063  32.5584 0012405 317.3990  42.6198 13.51002954110729
QIANFAN-45              
1 62246U 24232K   26066.14553776  .00000141  00000+0  20063-3 0  9990
2 62246  89.0067  32.7037 0013046 316.4995  43.5126 13.51000856110658
QIANFAN-46              
1 62247U 24232L   26066.17017950  .00000094  00000+0  12761-3 0  9996
2 62247  89.0063  32.7668 0013281 322.3681  37.6540 13.51003599110611
QIANFAN-47              
1 62248U 24232M   26066.10022836  .00000088  00000+0  11832-3 0  9990
2 62248  89.0058  32.7035 0013672 321.4484  38.5690 13.51003472110637
QIANFAN-48              
1 62249U 24232N   26066.13726737  .00000063  00000+0  79353-4 0  9991
2 62249  89.0063  32.7049 0015995 323.1397  36.8653 13.51003518110643
QIANFAN-49              
1 62250U 24232P   26066.12492911  .00000097  00000+0  13172-3 0  9999
2 62250  89.0061  32.7180 0012921 318.6979  41.3193 13.51002793 79233
QIANFAN-50              
1 62251U 24232Q   26066.14960316  .00000091  00000+0  12237-3 0  9996
2 62251  89.0067  32.7282 0014611 319.2881  40.7177 13.51003680 79264
QIANFAN-51              
1 62252U 24232R   26066.13317608  .00000064  00000+0  80393-4 0  9995
2 62252  89.0061  32.7186 0012237 324.6476  35.3863 13.51004413 79250
