[{"OBJECT_NAME":"QIANFAN-35","OBJECT_ID":"2024-185S","EPOCH":"2026-03-07T03:10:43.338720","MEAN_MOTION":14.28121689,"ECCENTRICITY":0.0007292,"INCLINATION":88.9747,"RA_OF_ASC_NODE":66.953,"ARG_OF_PERICENTER":27.9101,"MEAN_ANOMALY":332.2483,"EPHEMERIS_TYPE":0,"CLASSIFICATION_TYPE":"U","NORAD_CAT_ID":61568,"ELEMENT_SET_NO":999,"REV_AT_EPOCH":8222,"BSTAR":0.00040997,"MEAN_MOTION_DOT":1.033e-5,"MEAN_MOTION_DDOT":0},{"OBJECT_NAME":"QIANFAN-36","OBJECT_ID":"2024-185T","EPOCH":"2026-03-07T02:36:39.853440","MEAN_MOTION":13.55614009,"ECCENTRICITY":0.0007116,"INCLINATION":88.9719,"RA_OF_ASC_NODE":72.2387,"ARG_OF_PERICENTER":142.5966,"MEAN_ANOMALY":217.5684,"EPHEMERIS_TYPE":0,"CLASSIFICATION_TYPE":"U","NORAD_CAT_ID":61569,"ELEMENT_SET_NO":999,"REV_AT_EPOCH":7935,"BSTAR":0.00014115,"MEAN_MOTION_DOT":1.1e-6,"MEAN_MOTION_DDOT":0},{"OBJECT_NAME":"QIANFAN-37","OBJECT_ID":"2024-232B","EPOCH":"2026-03-07T03:05:53.403648","MEAN_MOTION":13.5100552,"ECCENTRICITY":0.0001753,"INCLINATION":89.0055,"RA_OF_ASC_NODE":32.8059,"ARG_OF_PERICENTER":97.5914,"MEAN_ANOMALY":262.5436,"EPHEMERIS_TYPE":0,"CLASSIFICATION_TYPE":"U","NORAD_CAT_ID":62238,"ELEMENT_SET_NO":999,"REV_AT_EPOCH":11056,"BSTAR":0.00011331,"MEAN_MOTION_DOT":8.5e-7,"MEAN_MOTION_DDOT":0},{"OBJECT_NAME":"QIANFAN-38","OBJECT_ID":"2024-232C","EPOCH":"2026-03-07T03:41:22.021440","MEAN_MOTION":13.51004059,"ECCENTRICITY":0.0013286,"INCLINATION":89.0062,"RA_OF_ASC_NODE":32.7249,"ARG_OF_PERICENTER":318.5893,"MEAN_ANOMALY":41.425,"EPHEMERIS_TYPE":0,"CLASSIFICATION_TYPE":"U","NORAD_CAT_ID":62239,"ELEMENT_SET_NO":999,"REV_AT_EPOCH":11062,"BSTAR":0.00011488,"MEAN_MOTION_DOT":8.6e-7,"MEAN_MOTION_DDOT":0},{"OBJECT_NAME":"QIANFAN-39","OBJECT_ID":"2024-232D","EPOCH":"2026-03-07T03:42:54.324288","MEAN_MOTION":14.25437701,"ECCENTRICITY":0.0016769,"INCLINATION":89.006,"RA_OF_ASC_NODE":27.6528,"ARG_OF_PERICENTER":154.1846,"MEAN_ANOMALY":206.0187,"EPHEMERIS_TYPE":0,"CLASSIFICATION_TYPE":"U","NORAD_CAT_ID":62240,"ELEMENT_SET_NO":999,"REV_AT_EPOCH":11341,"BSTAR":0.00019794,"MEAN_MOTION_DOT":4.82e-6,"MEAN_MOTION_DDOT":0},{"OBJECT_NAME":"QIANFAN-40","OBJECT_ID":"2024-232E","EPOCH":"2026-03-07T04:28:45.975072","MEAN_MOTION":13.51003356,"ECCENTRICITY":0.0012589,"INCLINATION":89.0091,"RA_OF_ASC_NODE":32.3298,"ARG_OF_PERICENTER":327.6784,"MEAN_ANOMALY":32.3594,"EPHEMERIS_TYPE":0,"CLASSIFICATION_TYPE":"U","NORAD_CAT_ID":62241,"ELEMENT_SET_NO":999,"REV_AT_EPOCH":11099,"BSTAR":0.00013926,"MEAN_MOTION_DOT":1.02e-6,"MEAN_MOTION_DDOT":0},{"OBJECT_NAME":"QIANFAN-41","OBJECT_ID":"2024-232F","EPOCH":"2026-03-07T04:40:40.473696","MEAN_MOTION":13.51005002,"ECCENTRICITY":0.0012592,"INCLINATION":89.0061,"RA_OF_ASC_NODE":32.6709,"ARG_OF_PERICENTER":314.4705,"MEAN_ANOMALY":45.5416,"EPHEMERIS_TYPE":0,"CLASSIFICATION_TYPE":"U","NORAD_CAT_ID":62242,"ELEMENT_SET_NO":999,"REV_AT_EPOCH":11065,"BSTAR":0.00012024,"MEAN_MOTION_DOT":9.0e-7,"MEAN_MOTION_DDOT":0},{"OBJECT_NAME":"QIANFAN-42","OBJECT_ID":"2024-232G","EPOCH":"2026-03-07T03:16:13.840320","MEAN_MOTION":14.24531435,"ECCENTRICITY":0.0015384,"INCLINATION":89.0058,"RA_OF_ASC_NODE":27.7147,"ARG_OF_PERICENTER":159.5965,"MEAN_ANOMALY":200.5845,"EPHEMERIS_TYPE":0,"CLASSIFICATION_TYPE":"U","NORAD_CAT_ID":62243,"ELEMENT_SET_NO":999,"REV_AT_EPOCH":11338,"BSTAR":0.00018689,"MEAN_MOTION_DOT":4.48e-6,"MEAN_MOTION_DDOT":0},{"OBJECT_NAME":"QIANFAN-43","OBJECT_ID":"2024-232H","EPOCH":"2026-03-07T04:34:41.317536","MEAN_MOTION":13.51005032,"ECCENTRICITY":0.0014269,"INCLINATION":89.0065,"RA_OF_ASC_NODE":32.7403,"ARG_OF_PERICENTER":319.388,"MEAN_ANOMALY":40.6206,"EPHEMERIS_TYPE":0,"CLASSIFICATION_TYPE":"U","NORAD_CAT_ID":62244,"ELEMENT_SET_NO":999,"REV_AT_EPOCH":7926,"BSTAR":0.00012651,"MEAN_MOTION_DOT":9.4e-7,"MEAN_MOTION_DDOT":0},{"OBJECT_NAME":"QIANFAN-44","OBJECT_ID":"2024-232J","EPOCH":"2026-03-07T02:30:16.793856","MEAN_MOTION":13.51002954,"ECCENTRICITY":0.0012405,"INCLINATION":89.0063,"RA_OF_ASC_NODE":32.5584,"ARG_OF_PERICENTER":317.399,"MEAN_ANOMALY":42.6198,"EPHEMERIS_TYPE":0,"CLASSIFICATION_TYPE":"U","NORAD_CAT_ID":62245,"ELEMENT_SET_NO":999,"REV_AT_EPOCH":11072,"BSTAR":0.00012488,"MEAN_MOTION_DOT":9.3e-7,"MEAN_MOTION_DDOT":0},{"OBJECT_NAME":"QIANFAN-45","OBJECT_ID":"2024-232K","EPOCH":"2026-03-07T03:29:34.462464","MEAN_MOTION":13.51000856,"ECCENTRICITY":0.0013046,"INCLINATION":89.0067,"RA_OF_ASC_NODE":32.7037,"ARG_OF_PERICENTER":316.4995,"MEAN_ANOMALY":43.5126,"EPHEMERIS_TYPE":0,"CLASSIFICATION_TYPE":"U","NORAD_CAT_ID":62246,"ELEMENT_SET_NO":999,"REV_AT_EPOCH":11065,"BSTAR":0.00020063,"MEAN_MOTION_DOT":1.41e-6,"MEAN_MOTION_DDOT":0},{"OBJECT_NAME":"QIANFAN-46","OBJECT_ID":"2024-232L","EPOCH":"2026-03-07T04:05:03.508800","MEAN_MOTION":13.51003599,"ECCENTRICITY":0.0013281,"INCLINATION":89.0063,"RA_OF_ASC_NODE":32.7668,"ARG_OF_PERICENTER":322.3681,"MEAN_ANOMALY":37.654,"EPHEMERIS_TYPE":0,"CLASSIFICATION_TYPE":"U","NORAD_CAT_ID":62247,"ELEMENT_SET_NO":999,"REV_AT_EPOCH":11061,"BSTAR":0.00012761,"MEAN_MOTION_DOT":9.4e-7,"MEAN_MOTION_DDOT":0},{"OBJECT_NAME":"QIANFAN-47","OBJECT_ID":"2024-232M","EPOCH":"2026-03-07T02:24:19.730304","MEAN_MOTION":13.51003472,"ECCENTRICITY":0.0013672,"INCLINATION":89.0058,"RA_OF_ASC_NODE":32.7035,"ARG_OF_PERICENTER":321.4484,"MEAN_ANOMALY":38.569,"EPHEMERIS_TYPE":0,"CLASSIFICATION_TYPE":"U","NORAD_CAT_ID":62248,"ELEMENT_SET_NO":999,"REV_AT_EPOCH":11063,"BSTAR":0.00011832,"MEAN_MOTION_DOT":8.8e-7,"MEAN_MOTION_DDOT":0},{"OBJECT_NAME":"QIANFAN-48","OBJECT_ID":"2024-232N","EPOCH":"2026-03-07T03:17:39.900768","MEAN_MOTION":13.51003518,"ECCENTRICITY":0.0015995,"INCLINATION":89.0063,"RA_OF_ASC_NODE":32.7049,"ARG_OF_PERICENTER":323.1397,"MEAN_ANOMALY":36.8653,"EPHEMERIS_TYPE":0,"CLASSIFICATION_TYPE":"U","NORAD_CAT_ID":62249,"ELEMENT_SET_NO":999,"REV_AT_EPOCH":11064,"BSTAR":7.9353e-5,"MEAN_MOTION_DOT":6.3e-7,"MEAN_MOTION_DDOT":0},{"OBJECT_NAME":"QIANFAN-49","OBJECT_ID":"2024-232P","EPOCH":"2026-03-07T02:59:53.875104","MEAN_MOTION":13.51002793,"ECCENTRICITY":0.0012921,"INCLINATION":89.0061,"RA_OF_ASC_NODE":32.718,"ARG_OF_PERICENTER":318.6979,"MEAN_ANOMALY":41.3193,"EPHEMERIS_TYPE":0,"CLASSIFICATION_TYPE":"U","NORAD_CAT_ID":62250,"ELEMENT_SET_NO":999,"REV_AT_EPOCH":7923,"BSTAR":0.00013172,"MEAN_MOTION_DOT":9.7e-7,"MEAN_MOTION_DDOT":0},{"OBJECT_NAME":"QIANFAN-50","OBJECT_ID":"2024-232Q","EPOCH":"2026-03-07T03:35:25.713024","MEAN_MOTION":13.5100368,"ECCENTRICITY":0.0014611,"INCLINATION":89.0067,"RA_OF_ASC_NODE":32.7282,"ARG_OF_PERICENTER":319.2881,"MEAN_ANOMALY":40.7177,"EPHEMERIS_TYPE":0,"CLASSIFICATION_TYPE":"U","NORAD_CAT_ID":62251,"ELEMENT_SET_NO":999,"REV_AT_EPOCH":7926,"BSTAR":0.00012237,"MEAN_MOTION_DOT":9.1e-7,"MEAN_MOTION_DDOT":0},{"OBJECT_NAME":"QIANFAN-51","OBJECT_ID":"2024-232R","EPOCH":"2026-03-07T03:11:46.413312","MEAN_MOTION":13.51004413,"ECCENTRICITY":0.0012237,"INCLINATION":89.0061,"RA_OF_ASC_NODE":32.7186,"ARG_OF_PERICENTER":324.6476,"MEAN_ANOMALY":35.3863,"EPHEMERIS_TYPE":0,"CLASSIFICATION_TYPE":"U","NORAD_CAT_ID":62252,"ELEMENT_SET_NO":999,"REV_AT_EPOCH":7925,"BSTAR":8.0393e-5,"MEAN_MOTION_DOT":6.4e-7,"MEAN_MOTION_DDOT":0}]
